[{"OBJECT_NAME":"STARLINK-36433","OBJECT_ID":"2026-012J","EPOCH":"2026-03-20T19:34:26.690016","MEAN_MOTION":15.2759937,"ECCENTRICITY":0.0003118,"INCLINATION":43.0023,"RA_OF_ASC_NODE":251.5387,"ARG_OF_PERICENTER":269.0975,"MEAN_ANOMALY":90.952,"EPHEMERIS_TYPE":0,"CLASSIFICATION_TYPE":"U","NORAD_CAT_ID":67501,"ELEMENT_SET_NO":999,"REV_AT_EPOCH":946,"BSTAR":0.0006605,"MEAN_MOTION_DOT":0.0001797,"MEAN_MOTION_DDOT":0},{"OBJECT_NAME":"STARLINK-36552","OBJECT_ID":"2026-012L","EPOCH":"2026-03-20T20:53:48.537024","MEAN_MOTION":15.27602678,"ECCENTRICITY":0.0001768,"INCLINATION":43.0024,"RA_OF_ASC_NODE":251.0932,"ARG_OF_PERICENTER":273.9809,"MEAN_ANOMALY":86.0841,"EPHEMERIS_TYPE":0,"CLASSIFICATION_TYPE":"U","NORAD_CAT_ID":67503,"ELEMENT_SET_NO":999,"REV_AT_EPOCH":947,"BSTAR":0.00080135,"MEAN_MOTION_DOT":0.0002187,"MEAN_MOTION_DDOT":0},{"OBJECT_NAME":"STARLINK-36512","OBJECT_ID":"2026-012M","EPOCH":"2026-03-20T12:51:54.954144","MEAN_MOTION":15.27611026,"ECCENTRICITY":0.00014494,"INCLINATION":43.0028,"RA_OF_ASC_NODE":252.8835,"ARG_OF_PERICENTER":263.8159,"MEAN_ANOMALY":96.2527,"EPHEMERIS_TYPE":0,"CLASSIFICATION_TYPE":"U","NORAD_CAT_ID":67504,"ELEMENT_SET_NO":999,"REV_AT_EPOCH":942,"BSTAR":0.00068032131,"MEAN_MOTION_DOT":0.00018524,"MEAN_MOTION_DDOT":0},{"OBJECT_NAME":"STARLINK-36545","OBJECT_ID":"2026-012N","EPOCH":"2026-03-20T12:46:22.240704","MEAN_MOTION":15.27600012,"ECCENTRICITY":0.00014338,"INCLINATION":42.9998,"RA_OF_ASC_NODE":252.8511,"ARG_OF_PERICENTER":262.6963,"MEAN_ANOMALY":97.3726,"EPHEMERIS_TYPE":0,"CLASSIFICATION_TYPE":"U","NORAD_CAT_ID":67505,"ELEMENT_SET_NO":999,"REV_AT_EPOCH":942,"BSTAR":0.00061471012,"MEAN_MOTION_DOT":0.00016702,"MEAN_MOTION_DDOT":0},{"OBJECT_NAME":"STARLINK-36553","OBJECT_ID":"2026-012P","EPOCH":"2026-03-20T12:40:49.267200","MEAN_MOTION":15.27597797,"ECCENTRICITY":0.00010013,"INCLINATION":42.9983,"RA_OF_ASC_NODE":252.8198,"ARG_OF_PERICENTER":268.6544,"MEAN_ANOMALY":91.4193,"EPHEMERIS_TYPE":0,"CLASSIFICATION_TYPE":"U","NORAD_CAT_ID":67506,"ELEMENT_SET_NO":999,"REV_AT_EPOCH":942,"BSTAR":0.00058170919,"MEAN_MOTION_DOT":0.00015788,"MEAN_MOTION_DDOT":0},{"OBJECT_NAME":"STARLINK-36521","OBJECT_ID":"2026-012Q","EPOCH":"2026-03-20T11:02:59.760096","MEAN_MOTION":15.27564511,"ECCENTRICITY":0.00021032,"INCLINATION":43.0032,"RA_OF_ASC_NODE":253.1717,"ARG_OF_PERICENTER":257.2447,"MEAN_ANOMALY":102.8169,"EPHEMERIS_TYPE":0,"CLASSIFICATION_TYPE":"U","NORAD_CAT_ID":67507,"ELEMENT_SET_NO":999,"REV_AT_EPOCH":941,"BSTAR":0.00067500091,"MEAN_MOTION_DOT":0.0001835,"MEAN_MOTION_DDOT":0},{"OBJECT_NAME":"STARLINK-36526","OBJECT_ID":"2026-012R","EPOCH":"2026-03-20T18:48:11.957472","MEAN_MOTION":15.27587072,"ECCENTRICITY":0.0002275,"INCLINATION":43.007,"RA_OF_ASC_NODE":251.2947,"ARG_OF_PERICENTER":281.7617,"MEAN_ANOMALY":78.2979,"EPHEMERIS_TYPE":0,"CLASSIFICATION_TYPE":"U","NORAD_CAT_ID":67508,"ELEMENT_SET_NO":999,"REV_AT_EPOCH":946,"BSTAR":0.00065447,"MEAN_MOTION_DOT":0.00017795,"MEAN_MOTION_DDOT":0},{"OBJECT_NAME":"STARLINK-36541","OBJECT_ID":"2026-012S","EPOCH":"2026-03-20T20:15:10.247040","MEAN_MOTION":15.27592318,"ECCENTRICITY":0.0002073,"INCLINATION":43.002,"RA_OF_ASC_NODE":251.7779,"ARG_OF_PERICENTER":264.5249,"MEAN_ANOMALY":95.5366,"EPHEMERIS_TYPE":0,"CLASSIFICATION_TYPE":"U","NORAD_CAT_ID":67509,"ELEMENT_SET_NO":999,"REV_AT_EPOCH":946,"BSTAR":0.00068349,"MEAN_MOTION_DOT":0.00018601,"MEAN_MOTION_DDOT":0},{"OBJECT_NAME":"STARLINK-36549","OBJECT_ID":"2026-012T","EPOCH":"2026-03-20T20:24:11.905920","MEAN_MOTION":15.27597905,"ECCENTRICITY":0.000211,"INCLINATION":43.0005,"RA_OF_ASC_NODE":250.9218,"ARG_OF_PERICENTER":277.5841,"MEAN_ANOMALY":82.4771,"EPHEMERIS_TYPE":0,"CLASSIFICATION_TYPE":"U","NORAD_CAT_ID":67510,"ELEMENT_SET_NO":999,"REV_AT_EPOCH":947,"BSTAR":0.00039248,"MEAN_MOTION_DOT":0.00010559,"MEAN_MOTION_DDOT":0},{"OBJECT_NAME":"STARLINK-36540","OBJECT_ID":"2026-012U","EPOCH":"2026-03-20T18:35:28.164192","MEAN_MOTION":15.27587655,"ECCENTRICITY":0.0001533,"INCLINATION":43.0004,"RA_OF_ASC_NODE":252.1146,"ARG_OF_PERICENTER":275.0907,"MEAN_ANOMALY":84.977,"EPHEMERIS_TYPE":0,"CLASSIFICATION_TYPE":"U","NORAD_CAT_ID":67511,"ELEMENT_SET_NO":999,"REV_AT_EPOCH":945,"BSTAR":0.0012449,"MEAN_MOTION_DOT":0.00034162,"MEAN_MOTION_DDOT":0},{"OBJECT_NAME":"STARLINK-36538","OBJECT_ID":"2026-012V","EPOCH":"2026-03-20T18:28:03.592992","MEAN_MOTION":15.27599622,"ECCENTRICITY":0.0001366,"INCLINATION":43.0008,"RA_OF_ASC_NODE":252.0555,"ARG_OF_PERICENTER":268.9261,"MEAN_ANOMALY":91.1434,"EPHEMERIS_TYPE":0,"CLASSIFICATION_TYPE":"U","NORAD_CAT_ID":67512,"ELEMENT_SET_NO":999,"REV_AT_EPOCH":945,"BSTAR":0.00074755,"MEAN_MOTION_DOT":0.00020378,"MEAN_MOTION_DDOT":0},{"OBJECT_NAME":"STARLINK-36531","OBJECT_ID":"2026-012W","EPOCH":"2026-03-20T11:56:37.472352","MEAN_MOTION":15.27566981,"ECCENTRICITY":0.0001163,"INCLINATION":43.0005,"RA_OF_ASC_NODE":253.4512,"ARG_OF_PERICENTER":259.9936,"MEAN_ANOMALY":100.0785,"EPHEMERIS_TYPE":0,"CLASSIFICATION_TYPE":"U","NORAD_CAT_ID":67513,"ELEMENT_SET_NO":999,"REV_AT_EPOCH":941,"BSTAR":0.00079338479,"MEAN_MOTION_DOT":0.00021625,"MEAN_MOTION_DDOT":0},{"OBJECT_NAME":"STARLINK-36530","OBJECT_ID":"2026-012X","EPOCH":"2026-03-20T19:41:51.954144","MEAN_MOTION":15.27629077,"ECCENTRICITY":0.0001736,"INCLINATION":43.0014,"RA_OF_ASC_NODE":251.5772,"ARG_OF_PERICENTER":266.2773,"MEAN_ANOMALY":93.788,"EPHEMERIS_TYPE":0,"CLASSIFICATION_TYPE":"U","NORAD_CAT_ID":67514,"ELEMENT_SET_NO":999,"REV_AT_EPOCH":946,"BSTAR":0.0010102,"MEAN_MOTION_DOT":0.00027681,"MEAN_MOTION_DDOT":0},{"OBJECT_NAME":"STARLINK-36543","OBJECT_ID":"2026-012Y","EPOCH":"2026-03-20T11:45:31.743072","MEAN_MOTION":15.27599248,"ECCENTRICITY":7.115e-5,"INCLINATION":42.9987,"RA_OF_ASC_NODE":253.3973,"ARG_OF_PERICENTER":253.0216,"MEAN_ANOMALY":107.0558,"EPHEMERIS_TYPE":0,"CLASSIFICATION_TYPE":"U","NORAD_CAT_ID":67515,"ELEMENT_SET_NO":999,"REV_AT_EPOCH":941,"BSTAR":0.00077209016,"MEAN_MOTION_DOT":0.00021057,"MEAN_MOTION_DDOT":0},{"OBJECT_NAME":"STARLINK-36537","OBJECT_ID":"2026-012Z","EPOCH":"2026-03-20T17:47:21.255936","MEAN_MOTION":15.27587999,"ECCENTRICITY":0.0001393,"INCLINATION":43.0006,"RA_OF_ASC_NODE":251.838,"ARG_OF_PERICENTER":259.846,"MEAN_ANOMALY":100.2235,"EPHEMERIS_TYPE":0,"CLASSIFICATION_TYPE":"U","NORAD_CAT_ID":67516,"ELEMENT_SET_NO":999,"REV_AT_EPOCH":945,"BSTAR":0.0013816,"MEAN_MOTION_DOT":0.00037962,"MEAN_MOTION_DDOT":0},{"OBJECT_NAME":"STARLINK-36544","OBJECT_ID":"2026-012AA","EPOCH":"2026-03-20T19:30:45.658944","MEAN_MOTION":15.27593374,"ECCENTRICITY":0.0001678,"INCLINATION":43.0009,"RA_OF_ASC_NODE":251.5158,"ARG_OF_PERICENTER":267.362,"MEAN_ANOMALY":92.704,"EPHEMERIS_TYPE":0,"CLASSIFICATION_TYPE":"U","NORAD_CAT_ID":67517,"ELEMENT_SET_NO":999,"REV_AT_EPOCH":946,"BSTAR":0.00078476,"MEAN_MOTION_DOT":0.00021404,"MEAN_MOTION_DDOT":0}]
