STARLINK-36433          
1 67501U 26012J   26079.81558669  .00017970  00000+0  66050-3 0  9995
2 67501  43.0023 251.5387 0003118 269.0975  90.9520 15.27599370  9467
STARLINK-36552          
1 67503U 26012L   26079.87070066  .00021870  00000+0  80135-3 0  9997
2 67503  43.0024 251.0932 0001768 273.9809  86.0841 15.27602678  9479
STARLINK-36512          
1 67504U 26012M   26079.53605271  .00018524  00000+0  68032-3 0  9997
2 67504  43.0028 252.8835 0001449 263.8159  96.2527 15.27611026  9423
STARLINK-36545          
1 67505U 26012N   26079.53220186  .00016702  00000+0  61471-3 0  9992
2 67505  42.9998 252.8511 0001433 262.6963  97.3726 15.27600012  9428
STARLINK-36553          
1 67506U 26012P   26079.52834800  .00015788  00000+0  58171-3 0  9992
2 67506  42.9983 252.8198 0001001 268.6544  91.4193 15.27597797  9424
STARLINK-36521          
1 67507U 26012Q   26079.46041389  .00018350  00000+0  67500-3 0  9992
2 67507  43.0032 253.1717 0002103 257.2447 102.8169 15.27564511  9410
STARLINK-36526          
1 67508U 26012R   26079.78347173  .00017795  00000+0  65447-3 0  9998
2 67508  43.0070 251.2947 0002275 281.7617  78.2979 15.27587072  9465
STARLINK-36541          
1 67509U 26012S   26079.84386860  .00018601  00000+0  68349-3 0  9993
2 67509  43.0020 251.7779 0002073 264.5249  95.5366 15.27592318  9466
STARLINK-36549          
1 67510U 26012T   26079.85013780  .00010559  00000+0  39248-3 0  9994
2 67510  43.0005 250.9218 0002110 277.5841  82.4771 15.27597905  9477
STARLINK-36540          
1 67511U 26012U   26079.77463153  .00034162  00000+0  12449-2 0  9998
2 67511  43.0004 252.1146 0001533 275.0907  84.9770 15.27587655  9450
STARLINK-36538          
1 67512U 26012V   26079.76948603  .00020378  00000+0  74755-3 0  9999
2 67512  43.0008 252.0555 0001366 268.9261  91.1434 15.27599622  9450
STARLINK-36531          
1 67513U 26012W   26079.49765593  .00021625  00000+0  79338-3 0  9993
2 67513  43.0005 253.4512 0001163 259.9936 100.0785 15.27566981  9417
STARLINK-36530          
1 67514U 26012X   26079.82074021  .00027681  00000+0  10102-2 0  9991
2 67514  43.0014 251.5772 0001736 266.2773  93.7880 15.27629077  9466
STARLINK-36543          
1 67515U 26012Y   26079.48995073  .00021057  00000+0  77209-3 0  9996
2 67515  42.9987 253.3973 0000711 253.0216 107.0558 15.27599248  9417
STARLINK-36537          
1 67516U 26012Z   26079.74121824  .00037962  00000+0  13816-2 0  9996
2 67516  43.0006 251.8380 0001393 259.8460 100.2235 15.27587999  9450
STARLINK-36544          
1 67517U 26012AA  26079.81302846  .00021404  00000+0  78476-3 0  9998
2 67517  43.0009 251.5158 0001678 267.3620  92.7040 15.27593374  9466
